{"fetched_at":"2026-03-30T06:02:59Z","count":15439,"tles":[{"name":"STARLINK-32223","line1":"1 60373U 24138U   26087.74284123  .00001073  00000+0  48353-4 0  9998","line2":"2 60373  53.1598 221.1784 0000897 120.8591 239.2499 15.30195652 93442","category":"Starlink"}]}